IRIDIUM 57              
1 25273U 98019B   25006.83570384  .00000798  00000+0  27003-3 0  9995
2 25273  86.3962 212.7969 0001919  88.8483 271.2933 14.35675601401639
IRIDIUM 63              
1 25286U 98021B   25007.12441915  .00001229  00000+0  41390-3 0  9997
2 25286  86.4017 149.6690 0002167  90.6310 269.5135 14.36306591400992
IRIDIUM 69              
1 25319U 98026A   25007.14195608  .00001640  00000+0  50792-3 0  9999
2 25319  86.4009 163.4194 0002630 149.4859 210.6494 14.40655015400111
IRIDIUM 71              
1 25320U 98026B   25006.89401828  .00001297  00000+0  39853-3 0  9999
2 25320  86.4009 158.2502 0000442 194.3637 165.7550 14.40888913400365
IRIDIUM 73              
1 25344U 98032C   25006.81958829  .00001730  00000+0  42955-3 0  9991
2 25344  86.4427 115.3598 0002272 111.8441 248.3006 14.51329243407150
IRIDIUM 82              
1 25467U 98051A   25006.91335883  .00033678  00000+0  12767-2 0  9991
2 25467  86.3727 188.3333 0103201 184.3762 175.6592 15.21793059399341
